NORAD_CAT_ID,OBJECT_NAME,OBJECT_TYPE,EPOCH,MEAN_MOTION,ECCENTRICITY,INCLINATION,RA_OF_ASC_NODE,ARG_OF_PERICENTER,MEAN_ANOMALY,BSTAR,MEAN_MOTION_DOT,MEAN_MOTION_DDOT,TLE_LINE0,TLE_LINE1,TLE_LINE2,SEMIMAJOR_AXIS,PERIOD,APOGEE,PERIGEE,DECAYED
52648.0,STARLINK-3854,PAYLOAD,2022-07-05 20:00:01,15.73203296,0.0002634999999999,53.2146,182.2504,17.3678,345.7319,0.00032034,0.00044587,0.0,0 STARLINK-3854,1 52648U 22052BC  22186.83334491  .00044587  00000-0  32034-3 0  9993,2 52648  53.2146 182.2504 0002635  17.3678 345.7319 15.73203296  8567,6727.886,91.533,351.524,347.978,0.0
52648.0,STARLINK-3854,PAYLOAD,2022-07-05 22:00:00,15.73223763,0.0002625,53.2146,181.8379,18.5092,96.8229,3.5928e-05,4.428e-05,0.0,0 STARLINK-3854,1 52648U 22052BC  22186.91667824  .00004428  00000-0  35928-4 0  9997,2 52648  53.2146 181.8379 0002625  18.5092  96.8229 15.73223763  1304,6727.8269999999975,91.532,351.458,347.926,0.0
52648.0,STARLINK-3854,PAYLOAD,2022-07-06 04:00:00,15.73231083,0.0002765,53.2147,180.6022,19.525,72.5225,-0.00047343,-0.00066644,0.0,0 STARLINK-3854,1 52648U 22052BC  22187.16667824 -.00066644  00000-0 -47343-3 0  9998,2 52648  53.2147 180.6022 0002765  19.5250  72.5225 15.73231083  8622,6727.807,91.531,351.532,347.811,0.0
52648.0,STARLINK-3854,PAYLOAD,2022-07-06 12:00:02,15.73186805,0.000293,53.2144,178.9534,20.0366,161.0104,0.00030868,0.00042904,0.0,0 STARLINK-3854,1 52648U 22052BC  22187.50002315  .00042904  00000-0  30868-3 0  9999,2 52648  53.2144 178.9534 0002930  20.0366 161.0104 15.73186805  8672,6727.933000000001,91.534,351.769,347.827,0.0
52648.0,STARLINK-3854,PAYLOAD,2022-07-06 14:00:01,15.73213841,0.0002886,53.2146,178.5404,20.174,273.0315,-2.1885e-05,-3.695e-05,0.0,0 STARLINK-3854,1 52648U 22052BC  22187.58334491 -.00003695  00000-0 -21885-4 0  9996,2 52648  53.2146 178.5404 0002886  20.1740 273.0315 15.73213841  1305,6727.856,91.532,351.662,347.779,0.0
52648.0,STARLINK-3854,PAYLOAD,2022-07-06 22:00:00,15.73228361,0.0002689,53.2149,176.8892,21.8923,0.2559,-0.00021555,-0.00030805,0.0,0 STARLINK-3854,1 52648U 22052BC  22187.91667824 -.00030805  00000-0 -21555-3 0  9998,2 52648  53.2149 176.8892 0002689  21.8923   0.2559 15.73228361  1305,6727.814,91.532,351.48800000000006,347.87,0.0
52648.0,STARLINK-3854,PAYLOAD,2022-07-07 12:00:00,15.73201087,0.0002932,53.2145,174.0045,18.3319,69.4714,0.00023461,0.00032438,0.0,0 STARLINK-3854,1 52648U 22052BC  22188.50001157  .00032438  00000-0  23461-3 0  9995,2 52648  53.2145 174.0045 0002932  18.3319  69.4714 15.73201087  8833,6727.892,91.533,351.73,347.784,0.0
52648.0,STARLINK-3854,PAYLOAD,2022-07-07 14:00:01,15.73233634,0.0002826,53.2145,173.5916,18.5036,181.5259,-0.00022695,-0.00032404,0.0,0 STARLINK-3854,1 52648U 22052BC  22188.58334491 -.00032404  00000-0 -22695-3 0  9996,2 52648  53.2145 173.5916 0002826  18.5036 181.5259 15.73233634  1302,6727.799,91.531,351.566,347.76300000000015,0.0
52648.0,STARLINK-3854,PAYLOAD,2022-07-07 22:00:00,15.73196486,0.0002587,53.2146,171.9406,19.3582,269.6333,-3.1389e-06,-1.063e-05,0.0,0 STARLINK-3854,1 52648U 22052BC  22188.91667824 -.00001063  00000-0 -31389-5 0  9991,2 52648  53.2146 171.9406 0002587  19.3582 269.6333 15.73196486  1302,6727.905,91.533,351.511,348.03,0.0
52648.0,STARLINK-3854,PAYLOAD,2022-07-08 10:29:54,15.73248329,0.0002895,53.2145,169.3638,21.8207,338.2936,0.00014651,0.00020034,0.0,0 STARLINK-3854,1 52648U 22052BC  22189.43744089  .00020034  00000-0  14651-3 0  9996,2 52648  53.2145 169.3638 0002895  21.8207 338.2936 15.73248329  8979,6727.757,91.53,351.57,347.675,0.0
52648.0,STARLINK-3854,PAYLOAD,2022-07-08 14:00:01,15.73316054,0.0002683,53.2143,168.6427,16.2463,90.7033,-2.7676e-05,-4.526e-05,0.0,0 STARLINK-3854,1 52648U 22052BC  22189.58334491 -.00004526  00000-0 -27676-4 0  9996,2 52648  53.2143 168.6427 0002683  16.2463  90.7033 15.73316054  1301,6727.564,91.526,351.2340000000001,347.624,0.0
52648.0,STARLINK-3854,PAYLOAD,2022-07-08 20:00:01,15.73291206,0.0002505,53.2145,167.4039,16.0959,67.7126,2.1078e-05,2.348e-05,0.0,0 STARLINK-3854,1 52648U 22052BC  22189.83335648  .00002348  00000-0  21078-4 0  9997,2 52648  53.2145 167.4039 0002505  16.0959  67.7126 15.73291206  9047,6727.635,91.528,351.185,347.815,0.0
52648.0,STARLINK-3854,PAYLOAD,2022-07-08 22:00:01,15.73298084,0.0002482,53.2147,166.9914,17.512999999999998,178.554,-0.00010783,-0.00015793,0.0,0 STARLINK-3854,1 52648U 22052BC  22189.91668981 -.00015793  00000-0 -10783-3 0  9995,2 52648  53.2147 166.9914 0002482  17.5130 178.5540 15.73298084  1309,6727.616,91.527,351.15,347.811,0.0
52648.0,STARLINK-3854,PAYLOAD,2022-07-09 14:00:01,15.73107332,0.0002693,53.2142,163.6934,16.6686,357.2852,-0.0010311,-0.00142377,0.0,0 STARLINK-3854,1 52648U 22052BC  22190.58334491 -.00142377  00000-0 -10311-2 0  9991,2 52648  53.2142 163.6934 0002693  16.6686 357.2852 15.73107332  1307,6728.159000000002,91.539,351.836,348.212,0.0
52648.0,STARLINK-3854,PAYLOAD,2022-07-09 20:00:01,15.72990292,0.0002593,53.2142,162.4552,21.9195,328.6186,0.00065,0.00090782,0.0,0 STARLINK-3854,1 52648U 22052BC  22190.83334491  .00090782  00000-0  65000-3 0  9995,2 52648  53.2142 162.4552 0002593  21.9195 328.6186 15.72990292  1309,6728.493,91.545,352.103,348.61300000000006,0.0
52648.0,STARLINK-3854,PAYLOAD,2022-07-10 12:00:00,15.73164673,0.0002709,53.2139,159.1586,15.7758,152.2741,8.3449e-05,0.00011089,0.0,0 STARLINK-3854,1 52648U 22052BC  22191.50001157  .00011089  00000-0  83449-4 0  9991,2 52648  53.2139 159.1586 0002709  15.7758 152.2741 15.73164673  9303,6727.996,91.535,351.684,348.038,0.0
52648.0,STARLINK-3854,PAYLOAD,2022-07-10 14:00:01,15.7317505,0.0002628999999999,53.2141,158.7455,16.4248,263.8436,-3.3594e-06,-1.093e-05,0.0,0 STARLINK-3854,1 52648U 22052BC  22191.58334491 -.00001093  00000-0 -33594-5 0  9992,2 52648  53.2141 158.7455 0002629  16.4248 263.8436 15.73175050  1302,6727.965999999999,91.535,351.6,348.06300000000016,0.0
52648.0,STARLINK-3854,PAYLOAD,2022-07-10 22:00:00,15.73187304,0.0002511,53.2146,157.095,20.1345,349.0319,0.00040392,0.00056423,0.0,0 STARLINK-3854,1 52648U 22052BC  22191.91667824  .00056423  00000-0  40392-3 0  9995,2 52648  53.2146 157.0950 0002511  20.1345 349.0319 15.73187304  1301,6727.931,91.534,351.486,348.107,0.0
52648.0,STARLINK-3854,PAYLOAD,2022-07-11 04:00:00,15.73224894,0.0002717,53.2144,155.8595,19.5438,326.3278,0.00017341,0.00023813,0.0,0 STARLINK-3854,1 52648U 22052BC  22192.16667824  .00023813  00000-0  17341-3 0  9998,2 52648  53.2144 155.8595 0002717  19.5438 326.3278 15.73224894  9400,6727.824000000001,91.532,351.517,347.861,0.0
52648.0,STARLINK-3854,PAYLOAD,2022-07-11 14:00:01,15.73280516,0.0002616,53.2144,153.7966,18.7484,168.3311,-4.2137e-05,-6.553e-05,0.0,0 STARLINK-3854,1 52648U 22052BC  22192.58334491 -.00006553  00000-0 -42137-4 0  9991,2 52648  53.2144 153.7966 0002616  18.7484 168.3311 15.73280516  1305,6727.666,91.528,351.291,347.771,0.0
52648.0,STARLINK-3854,PAYLOAD,2022-07-11 22:00:00,15.73289047,0.0002435,53.2147,152.1463,19.8747,256.2217,-0.00041829,-0.00059148,0.0,0 STARLINK-3854,1 52648U 22052BC  22192.91667824 -.00059148  00000-0 -41829-3 0  9991,2 52648  53.2147 152.1463 0002435  19.8747 256.2217 15.73289047  1306,6727.641,91.528,351.144,347.86800000000005,0.0
52648.0,STARLINK-3854,PAYLOAD,2022-07-12 04:00:00,15.7325232,0.0002678,53.2144,150.9108,18.9834,233.8792,-0.0003337,-0.00047306,0.0,0 STARLINK-3854,1 52648U 22052BC  22193.16667824 -.00047306  00000-0 -33370-3 0  9994,2 52648  53.2144 150.9108 0002678  18.9834 233.8792 15.73252320  9560,6727.746,91.53,351.413,347.809,0.0
52648.0,STARLINK-3854,PAYLOAD,2022-07-12 12:00:00,15.7327589,0.0002573,53.2144,149.2606,17.4552,324.3834,-0.00051396,-0.00072383,0.0,0 STARLINK-3854,1 52648U 22052BC  22193.50001157 -.00072383  00000-0 -51396-3 0  9994,2 52648  53.2144 149.2606 0002573  17.4552 324.3834 15.73275890  9615,6727.679,91.529,351.275,347.81300000000016,0.0
52648.0,STARLINK-3854,PAYLOAD,2022-07-12 14:00:01,15.73257317,0.0002462,53.2146,148.8475,17.0853,77.0077,-0.00033551,-0.00047566,0.0,0 STARLINK-3854,1 52648U 22052BC  22193.58334491 -.00047566  00000-0 -33551-3 0  9990,2 52648  53.2146 148.8475 0002462  17.0853  77.0077 15.73257317  1306,6727.732,91.53,351.25300000000016,347.94,0.0
52648.0,STARLINK-3854,PAYLOAD,2022-07-12 22:00:00,15.73261624,0.0002318,53.2152,147.1974,19.0056,164.0575,9.5257e-05,0.00012803,0.0,0 STARLINK-3854,1 52648U 22052BC  22193.91667824  .00012803  00000-0  95257-4 0  9992,2 52648  53.2152 147.1974 0002318  19.0056 164.0575 15.73261624  1302,6727.719,91.53,351.144,348.025,0.0
52648.0,STARLINK-3854,PAYLOAD,2022-07-13 04:00:00,15.73295429,0.0002616,53.2151,145.9618,17.5647,142.2555,-0.00084879,-0.00118588,0.0,0 STARLINK-3854,1 52648U 22052BC  22194.16667824 -.00118588  00000-0 -84879-3 0  9996,2 52648  53.2151 145.9618 0002616  17.5647 142.2555 15.73295429  9722,6727.623000000001,91.528,351.24800000000016,347.728,0.0
52648.0,STARLINK-3854,PAYLOAD,2022-07-13 13:59:47,15.7324839,0.0003195,53.2156,143.8999,28.4732,331.6462,0.00037116,0.00051909,0.0,0 STARLINK-3854,1 52648U 22052BC  22194.58318497  .00051909  00000-0  37116-3 0  9994,2 52648  53.2156 143.8999 0003195  28.4732 331.6462 15.73248390  9417,6727.757,91.53,351.772,347.473,0.0
52648.0,STARLINK-3854,PAYLOAD,2022-07-13 20:00:01,15.73148627,0.000243,53.2153,142.661,25.4685,312.2284,-0.00027116,-0.00038426,0.0,0 STARLINK-3854,1 52648U 22052BC  22194.83334491 -.00038426  00000-0 -27116-3 0  9994,2 52648  53.2153 142.6610 0002430  25.4685 312.2284 15.73148627  9820,6728.042,91.536,351.542,348.272,0.0
52648.0,STARLINK-3854,PAYLOAD,2022-07-13 22:00:00,15.73148267,0.0002437,53.2154,142.2492,24.6753,65.2347,-0.00033752,-0.00047625,0.0,0 STARLINK-3854,1 52648U 22052BC  22194.91667824 -.00047625  00000-0 -33752-3 0  9996,2 52648  53.2154 142.2492 0002437  24.6753  65.2347 15.73148267  1309,6728.043000000002,91.536,351.547,348.26800000000014,0.0
